OBJECT_NAME,OBJECT_ID,EPOCH,MEAN_MOTION,ECCENTRICITY,INCLINATION,RA_OF_ASC_NODE,ARG_OF_PERICENTER,MEAN_ANOMALY,EPHEMERIS_TYPE,CLASSIFICATION_TYPE,NORAD_CAT_ID,ELEMENT_SET_NO,REV_AT_EPOCH,BSTAR,MEAN_MOTION_DOT,MEAN_MOTION_DDOT
HYLAS 1,2010-065A,2026-06-03T22:13:41.838816,1.00273065,.00012621,5.6100,73.1808,325.7611,200.6674,0,U,37237,999,675,0,.1E-5,0
INTELSAT 17 (IS-17),2010-065B,2026-06-04T03:36:34.090848,1.00271730,.00023879,0.0091,282.9347,153.6832,296.1153,0,U,37238,999,5311,0,.1E-6,0
BEIDOU-2 IGSO-2,2010-068A,2026-05-29T22:19:53.199840,1.00287198,.00552386,47.5822,272.0579,212.8050,204.6695,0,U,37256,999,5661,0,-.227E-5,0
EUTELSAT KA-SAT 9A,2010-069A,2026-06-04T01:37:38.778816,1.00271896,.00041467,0.0607,9.8756,120.7532,155.2975,0,U,37258,999,4387,0,.74E-6,0
HISPASAT 30W-5,2010-070A,2026-06-04T04:51:53.360352,1.00271811,.0005238,0.0579,112.3952,343.0356,200.2174,0,U,37264,999,5305,0,-.204E-5,0
KOREASAT 6,2010-070B,2026-06-04T07:53:38.537664,1.00272219,.00024255,0.0137,41.3800,37.5417,92.1569,0,U,37265,999,5664,0,-.99E-6,0
BEIDOU-2 IGSO-3,2011-013A,2026-06-03T16:33:58.184928,1.00271806,.00344018,62.3886,40.2803,185.8620,22.5488,0,U,37384,999,5552,0,-.18E-5,0
INTELSAT 28 (IS-28),2011-016A,2026-06-04T04:51:23.408064,1.00270338,.00040921,1.7724,82.7814,350.5125,220.5329,0,U,37392,999,5315,0,-.213E-5,0
YAHSAT 1A,2011-016B,2026-06-04T01:50:00.094272,1.00272716,.00032868,0.0153,345.0828,96.7036,250.7338,0,U,37393,999,4227,0,0,0
SBIRS GEO-1 (USA 230),2011-019A,2026-06-04T05:29:38.603328,1.00271993,.00021176,4.5086,53.1319,10.2697,323.4828,0,U,37481,999,5526,0,.11E-5,0
TELSTAR 14R,2011-021A,2026-06-03T20:09:06.137568,1.00271719,.000264,0.0173,346.8360,79.1263,65.6116,0,U,37602,999,5570,0,-.268E-5,0
GSAT-8,2011-022A,2026-06-04T03:33:26.889696,1.00273051,.0002204,2.0972,81.9840,222.5601,56.5001,0,U,37605,999,5308,0,.96E-6,0
ST-2,2011-022B,2026-06-04T04:12:21.631104,1.00272177,.00019635,0.0175,20.5521,68.2008,314.9902,0,U,37606,999,5514,0,-.2E-5,0
ZHONGXING-10,2011-026A,2026-06-04T03:42:11.052576,1.00272019,.00036892,1.0135,84.3576,353.3142,316.0245,0,U,37677,999,5486,0,-.177E-5,0
SES-3,2011-035A,2026-06-04T05:33:23.397120,1.00271586,.00028929,1.2930,83.2285,344.6526,165.1495,0,U,37748,999,5446,0,-.9E-6,0
KAZSAT-2,2011-035B,2026-06-04T01:59:44.160864,1.00270979,.00011909,0.0378,250.7310,241.6561,236.6090,0,U,37749,999,5326,0,-.186E-5,0
BEIDOU-2 IGSO-4,2011-038A,2026-05-31T12:27:58.883328,1.00288616,.015867,54.5976,165.8209,231.3955,131.4280,0,U,37763,999,5448,0,.47E-6,0
ASTRA 1N,2011-041A,2026-06-04T03:23:12.870816,1.00273473,.00062291,0.1060,51.1232,33.3773,238.1021,0,U,37775,999,4439,0,.132E-5,0
BSAT-3C (JCSAT-110R),2011-041B,2026-06-04T00:23:45.112704,1.00268490,.00004445,0.0270,307.6048,183.3107,237.4542,0,U,37776,999,5033,0,-.338E-5,0
PAKSAT-1R,2011-042A,2026-06-04T03:28:34.856832,1.00273224,.00035002,0.6548,84.7286,342.0699,275.9104,0,U,37779,999,5434,0,.166E-5,0
SES-2,2011-049A,2026-06-04T04:22:38.760384,1.00270509,.00029978,0.0340,109.1001,324.7505,157.4488,0,U,37809,999,5383,0,-.184E-5,0
ARABSAT-5C,2011-049B,2026-06-04T03:23:27.848256,1.00272065,.00031747,0.0551,19.4938,70.9925,232.9581,0,U,37810,999,5390,0,.135E-5,0
EUTELSAT 7 WEST A,2011-051A,2026-06-04T04:58:15.250080,1.00271020,.00043762,0.0617,344.1340,102.8073,232.9681,0,U,37816,999,5374,0,-.48E-6,0
QUETZSAT 1,2011-054A,2026-06-04T04:14:38.556096,1.00270907,.00029224,0.0378,60.3534,16.2528,162.6861,0,U,37826,999,4974,0,-.23E-5,0
INTELSAT 18 (IS-18),2011-056A,2026-06-04T06:48:02.888928,1.00271542,.00022581,0.0136,292.1510,152.6749,89.9204,0,U,37834,999,5368,0,.65E-6,0
EUTELSAT 16A,2011-057A,2026-06-04T03:22:12.967104,1.00269244,.00057993,0.0434,340.4001,95.2004,243.5517,0,U,37836,999,720,0,.116E-5,0
VIASAT-1,2011-059A,2026-06-04T03:36:38.767680,1.00271893,.00025423,0.0183,324.7417,109.1241,117.8023,0,U,37843,999,4719,0,-.12E-6,0
ASIASAT 7,2011-069A,2026-06-04T00:22:30.232416,1.00272185,.0001741,0.0176,309.1409,112.8682,301.6156,0,U,37933,999,4472,0,-.322E-5,0
BEIDOU-2 IGSO-5,2011-073A,2026-06-03T19:27:21.923424,1.00276258,.01132226,47.7037,271.7128,221.7068,142.4237,0,U,37948,999,5300,0,-.164E-5,0
LUCH-5A,2011-074B,2026-06-04T07:23:34.127232,1.00269912,.00025086,8.7212,73.9970,7.6682,89.0092,0,U,37951,999,5292,0,-.4E-6,0
NIGCOMSAT 1R,2011-077A,2026-06-04T03:29:49.737120,1.00270318,.00028105,0.0247,222.6163,134.2727,350.6602,0,U,38014,999,5282,0,.157E-5,0
WGS F4 (USA 233),2012-003A,2026-06-04T04:49:38.495136,1.00271669,.00003333,0.0174,329.3529,10.9471,73.1852,0,U,38070,999,4401,0,-.203E-5,0
SES-4,2012-007A,2026-06-04T04:54:08.145216,1.00272603,.00024787,0.0289,32.5473,51.3048,220.3355,0,U,38087,999,5209,0,-.156E-5,0
BEIDOU-2 G5,2012-008A,2026-06-04T03:34:34.283424,1.00269222,.00096585,3.5416,69.7782,276.2658,18.9155,0,U,38091,999,5223,0,.68E-6,0
MUOS-1,2012-009A,2026-06-04T04:30:38.689920,1.00270927,.00589217,5.4505,47.1660,0.7917,172.3899,0,U,38093,999,5231,0,-.117E-5,0
INTELSAT 22 (IS-22),2012-011A,2026-06-04T05:13:38.629344,1.00271931,.00020398,0.0097,33.5367,39.6766,329.9543,0,U,38098,999,705,0,-.47E-6,0
APSTAR-7,2012-013A,2026-06-04T03:39:33.803712,1.00271581,.00029959,0.0203,20.1676,61.7382,302.0891,0,U,38107,999,5167,0,-.9E-6,0
YAHSAT 1B,2012-016A,2026-06-04T05:29:38.603328,1.00273220,.00028276,0.0917,91.1862,358.4635,293.0420,0,U,38245,999,4547,0,.138E-5,0
AEHF-2 (USA 235),2012-019A,2026-06-04T01:30:14.844384,1.00270708,.00022961,6.6214,57.5851,5.4187,195.5733,0,U,38254,999,685,0,-.125E-5,0
JCSAT-13,2012-023A,2026-06-04T07:18:24.697728,1.00270334,.00030005,0.0318,69.9545,21.5382,34.8641,0,U,38331,999,5141,0,-.344E-5,0
VINASAT-2,2012-023B,2026-06-04T07:20:39.481728,1.00270545,.00026284,0.0137,349.8897,98.1004,46.7806,0,U,38332,999,4653,0,-.317E-5,0
NIMIQ 6,2012-026A,2026-06-04T04:22:38.760384,1.00272895,.00029551,0.0094,321.0528,110.9888,155.1497,0,U,38342,999,5028,0,-.162E-5,0
ZHONGXING-2A,2012-028A,2026-06-04T04:49:38.495136,1.00272888,.00035117,1.4211,84.0522,28.7033,310.5420,0,U,38352,999,5116,0,-.281E-5,0
INTELSAT 19 (IS-19),2012-030A,2026-06-04T07:45:38.832768,1.00272177,.00032257,0.0188,336.0261,104.6625,94.5018,0,U,38356,999,5032,0,-.44E-6,0
ECHOSTAR 17,2012-035A,2026-06-04T03:36:38.767680,1.00270029,.00019245,0.0185,350.1930,83.0823,126.3917,0,U,38551,999,5093,0,0,0
METEOSAT-10 (MSG-3),2012-035B,2026-06-04T01:35:06.009792,1.00275536,.00018557,4.6405,61.0782,337.7427,237.6281,0,U,38552,999,5072,0,.5E-7,0
SES-5,2012-036A,2026-06-03T18:00:00.000000,1.00270184,.00021701,0.0465,310.2198,120.8405,96.1312,0,U,38652,999,4432,0,.46E-6,0
INTELSAT 20 (IS-20),2012-043A,2026-06-04T05:13:38.629344,1.00273082,.00016611,0.0048,89.4312,84.3196,225.8244,0,U,38740,999,5061,0,-.13E-6,0
HYLAS 2,2012-043B,2026-06-04T02:56:54.671136,1.00269582,.00030663,2.3934,81.2253,14.6266,128.3750,0,U,38741,999,5064,0,-.246E-5,0
INTELSAT 21 (IS-21),2012-045A,2026-06-04T01:18:30.968640,1.00270324,.00021572,0.0368,77.8866,7.0429,129.2018,0,U,38749,999,5039,0,-.273E-5,0
ASTRA 2F,2012-051A,2026-06-04T03:25:42.632256,1.00271804,.00007617,0.0541,258.2551,262.6222,171.3216,0,U,38778,999,4100,0,.162E-5,0
GSAT-10,2012-051B,2026-06-04T03:41:26.124576,1.00272495,.00080878,0.0240,261.8958,185.8329,303.2613,0,U,38779,999,4996,0,-.153E-5,0
INTELSAT 23 (IS-23),2012-057A,2026-06-04T03:02:33.463680,1.00268539,.00002538,0.0141,303.1615,182.9975,119.0589,0,U,38867,999,4982,0,-.273E-5,0
BEIDOU-2 G6,2012-059A,2026-06-03T22:22:51.870720,1.00268641,.0010233,4.3879,73.6667,326.8485,271.5225,0,U,38953,999,4977,0,-.163E-5,0
LUCH-5B,2012-061A,2026-06-03T23:47:46.796640,1.00274489,.00015201,10.4533,50.0115,139.2644,43.7879,0,U,38977,999,4947,0,-.129E-5,0
YAMAL 300K,2012-061B,2026-06-04T04:09:53.396352,1.00276417,.00010283,0.0166,285.5808,297.3976,275.0690,0,U,38978,999,4950,0,.84E-6,0
STAR ONE C3,2012-062A,2026-06-04T04:14:38.556096,1.00271390,.00026741,0.0186,328.6893,118.9681,153.6466,0,U,38991,999,4963,0,-.237E-5,0
EUTELSAT 21B,2012-062B,2026-06-03T20:33:11.154240,1.00268624,.0003037,0.0668,343.5425,84.3566,154.3055,0,U,38992,999,4969,0,.142E-5,0
ECHOSTAR 16,2012-065A,2026-06-03T21:52:13.097280,1.00269674,.0001798,0.0146,358.3754,82.4891,78.0635,0,U,39008,999,4951,0,0,0
ZHONGXING-12,2012-067A,2026-06-04T04:49:38.495136,1.00272223,.00033652,0.0481,99.9140,330.2175,342.4400,0,U,39017,999,4937,0,-.195E-5,0
EUTELSAT 70B,2012-069A,2026-06-04T05:13:38.629344,1.00271294,.00039531,0.0620,346.5399,79.8481,335.1794,0,U,39020,999,4937,0,-.31E-6,0
YAMAL 402,2012-070A,2026-06-04T03:33:19.402272,1.00272535,.00040701,1.2315,84.3233,346.4615,290.0429,0,U,39022,999,4926,0,.98E-6,0
SKYNET 5D,2012-075A,2026-06-04T03:32:49.449984,1.00271724,.00039788,0.0662,353.1242,87.6911,277.7634,0,U,39034,999,4902,0,.111E-5,0
MEXSAT 3,2012-075B,2026-06-04T05:41:38.729184,1.00276465,.00010824,0.0142,17.1466,51.3541,154.8027,0,U,39035,999,692,0,-.14E-6,0
TDRS 11,2013-004A,2026-06-04T07:56:24.971712,1.00278246,.00049873,3.5025,31.0500,20.6237,145.9758,0,U,39070,999,4656,0,.92E-6,0
AMAZONAS 3,2013-006A,2026-06-04T04:42:37.476576,1.00272014,.00022212,0.0347,189.6469,272.7470,159.9244,0,U,39078,999,4478,0,-.27E-5,0
AZERSPACE 1,2013-006B,2026-06-04T03:30:49.641696,1.00271121,.00014826,0.0239,55.7141,39.4564,256.1240,0,U,39079,999,4867,0,.145E-5,0
SBIRS GEO-2 (USA 241),2013-011A,2026-06-04T04:46:08.911200,1.00271062,.00020612,4.4627,52.5027,14.3418,207.5345,0,U,39120,999,4840,0,-.276E-5,0
EUTELSAT 117 WEST A,2013-012A,2026-06-04T04:23:38.772960,1.00271878,.00029864,0.0348,51.6024,24.2761,125.8619,0,U,39122,999,4830,0,-.1E-7,0
ANIK G1,2013-014A,2026-06-04T04:30:38.689920,1.00272235,.00019124,0.0374,79.1120,347.0690,146.8118,0,U,39127,999,4812,0,-.62E-6,0
ZHONGXING-11,2013-020A,2026-06-04T03:02:21.650208,1.00270445,.00025222,0.0211,13.8748,59.6348,322.5563,0,U,39157,999,4776,0,-.278E-5,0
EUTELSAT 7B,2013-022A,2026-06-04T05:02:22.354944,1.00270602,.00053067,0.0667,2.2530,33.0993,299.9087,0,U,39163,999,4781,0,.6E-6,0
